STARLINK-5833           
1 55773U 23028AJ  26068.70689438  .00000549  00000+0  53827-4 0  9995
2 55773  70.0002 224.4904 0003046 270.7913  89.2897 14.98333799166535
SHIYAN-24C 02           
1 58651U 23206B   26068.89175597  .00002770  00000+0  23935-3 0  9991
2 58651  97.3985  41.8071 0003465  80.6641 279.4974 14.97980163120443
